STARLINK-30874          
1 58227U 23170X   26068.37761980 -.00003268  00000+0 -11224-3 0  9993
2 58227  43.0017 195.8134 0001718 286.1371  73.9291 15.26726036130257
TEVEL2-7                
1 63238U 25052AE  26068.66113295  .00019244  00000+0  69668-3 0  9998
2 63238  97.4054 324.3041 0008105 124.6830 235.5175 15.28414096 54803
